COSMOS 2251 DEB         
1 33982U 93036FR  26087.64453751  .00002063  00000+0  41171-3 0  9991
2 33982  74.0705 158.0737 0074686 177.1129 342.9395 14.60849215907056
COSMOS 2251 DEB         
1 33983U 93036FS  26087.84851344  .00001526  00000+0  39076-3 0  9998
2 33983  74.0493 307.6716 0019832  22.1868 350.5852 14.51139843901686
COSMOS 2251 DEB         
1 33984U 93036FT  26087.15131141  .00003421  00000+0  60655-3 0  9992
2 33984  74.0079 143.3771 0025446 306.4952  84.3259 14.67470217906120
COSMOS 2251 DEB         
1 33986U 93036FV  26087.77976183  .00001536  00000+0  45471-3 0  9999
2 33986  74.0328 105.6167 0040335 158.7755  20.2266 14.43767029895580
COSMOS 2251 DEB         
1 33990U 93036FZ  26087.84178814  .00000505  00000+0  49377-3 0  9991
2 33990  73.9251 115.6439 0403929 116.4960  64.7893 13.50170443841611
COSMOS 2251 DEB         
1 33992U 93036GB  26087.89911072  .00003350  00000+0  58676-3 0  9992
2 33992  74.0223 132.8018 0054683 226.2094 306.8905 14.67247751906819
COSMOS 2251 DEB         
1 33994U 93036GD  26087.82836862  .00000262  00000+0  89046-4 0  9995
2 33994  74.0458 354.0752 0022036 105.5906 315.8050 14.41296383899484
COSMOS 2251 DEB         
1 33995U 93036GE  26087.56190147  .00001851  00000+0  64137-3 0  9994
2 33995  74.0594 285.6599 0060022 273.1541  86.2745 14.35351396890376
COSMOS 2251 DEB         
1 33999U 93036GJ  26087.83383883  .00013653  00000+0  15284-2 0  9990
2 33999  73.9194  18.7087 0045915 245.8865 113.7508 14.86141245908256
COSMOS 2251 DEB         
1 34001U 93036GL  26087.76123251  .00000452  00000+0  16038-3 0  9990
2 34001  74.0360  86.6172 0019489 149.8251  34.4739 14.37227021896698
COSMOS 2251 DEB         
1 34003U 93036GN  26087.01370235  .00001695  00000+0  11301-2 0  9993
2 34003  74.0760 107.8601 0278258 196.5013 162.6921 13.84711269858826
COSMOS 2251 DEB         
1 34004U 93036GP  26087.80699786  .00003031  00000+0  78414-3 0  9991
2 34004  74.0331 114.0511 0027887 106.6117 253.8108 14.50082176895674
COSMOS 2251 DEB         
1 34005U 93036GQ  26087.82097094  .00000340  00000+0  11501-3 0  9992
2 34005  74.0476  17.6359 0019389 114.4278 314.0841 14.40398560899063
COSMOS 2251 DEB         
1 34006U 93036GR  26087.62967802  .00051862  00000+0  36135-2 0  9998
2 34006  74.0495 288.3132 0010347 184.2133 238.8831 15.05125059902566
COSMOS 2251 DEB         
1 34007U 93036GS  26087.60473935  .00003058  00000+0  55782-3 0  9990
2 34007  74.0179 142.9555 0048011 251.7770 107.8169 14.65717285906304
COSMOS 2251 DEB         
1 34008U 93036GT  26087.61995594  .00000226  00000+0  91500-4 0  9995
2 34008  74.0330 137.0129 0022205 110.6135  54.1271 14.33225334894815
