[{"OBJECT_NAME":"COSMOS 2251 DEB","OBJECT_ID":"1993-036FR","EPOCH":"2026-03-28T15:28:08.040864","MEAN_MOTION":14.60849215,"ECCENTRICITY":0.0074686,"INCLINATION":74.0705,"RA_OF_ASC_NODE":158.0737,"ARG_OF_PERICENTER":177.1129,"MEAN_ANOMALY":342.9395,"EPHEMERIS_TYPE":0,"CLASSIFICATION_TYPE":"U","NORAD_CAT_ID":33982,"ELEMENT_SET_NO":999,"REV_AT_EPOCH":90705,"BSTAR":0.00041171,"MEAN_MOTION_DOT":2.063e-5,"MEAN_MOTION_DDOT":0},{"OBJECT_NAME":"COSMOS 2251 DEB","OBJECT_ID":"1993-036FS","EPOCH":"2026-03-28T20:21:51.561216","MEAN_MOTION":14.51139843,"ECCENTRICITY":0.0019832,"INCLINATION":74.0493,"RA_OF_ASC_NODE":307.6716,"ARG_OF_PERICENTER":22.1868,"MEAN_ANOMALY":350.5852,"EPHEMERIS_TYPE":0,"CLASSIFICATION_TYPE":"U","NORAD_CAT_ID":33983,"ELEMENT_SET_NO":999,"REV_AT_EPOCH":90168,"BSTAR":0.00039076,"MEAN_MOTION_DOT":1.526e-5,"MEAN_MOTION_DDOT":0},{"OBJECT_NAME":"COSMOS 2251 DEB","OBJECT_ID":"1993-036FT","EPOCH":"2026-03-28T03:37:53.305824","MEAN_MOTION":14.67470217,"ECCENTRICITY":0.00254462,"INCLINATION":74.0079,"RA_OF_ASC_NODE":143.3771,"ARG_OF_PERICENTER":306.4952,"MEAN_ANOMALY":84.3259,"EPHEMERIS_TYPE":0,"CLASSIFICATION_TYPE":"U","NORAD_CAT_ID":33984,"ELEMENT_SET_NO":999,"REV_AT_EPOCH":90612,"BSTAR":0.00060655097,"MEAN_MOTION_DOT":3.421e-5,"MEAN_MOTION_DDOT":0},{"OBJECT_NAME":"COSMOS 2251 DEB","OBJECT_ID":"1993-036FV","EPOCH":"2026-03-28T18:42:51.422112","MEAN_MOTION":14.43767029,"ECCENTRICITY":0.0040335,"INCLINATION":74.0328,"RA_OF_ASC_NODE":105.6167,"ARG_OF_PERICENTER":158.7755,"MEAN_ANOMALY":20.2266,"EPHEMERIS_TYPE":0,"CLASSIFICATION_TYPE":"U","NORAD_CAT_ID":33986,"ELEMENT_SET_NO":999,"REV_AT_EPOCH":89558,"BSTAR":0.00045471,"MEAN_MOTION_DOT":1.536e-5,"MEAN_MOTION_DDOT":0},{"OBJECT_NAME":"COSMOS 2251 DEB","OBJECT_ID":"1993-036FZ","EPOCH":"2026-03-28T20:12:10.495296","MEAN_MOTION":13.50170443,"ECCENTRICITY":0.0403929,"INCLINATION":73.9251,"RA_OF_ASC_NODE":115.6439,"ARG_OF_PERICENTER":116.496,"MEAN_ANOMALY":64.7893,"EPHEMERIS_TYPE":0,"CLASSIFICATION_TYPE":"U","NORAD_CAT_ID":33990,"ELEMENT_SET_NO":999,"REV_AT_EPOCH":84161,"BSTAR":0.00049377,"MEAN_MOTION_DOT":5.05e-6,"MEAN_MOTION_DDOT":0},{"OBJECT_NAME":"COSMOS 2251 DEB","OBJECT_ID":"1993-036GB","EPOCH":"2026-03-28T21:34:43.166208","MEAN_MOTION":14.67247751,"ECCENTRICITY":0.0054683,"INCLINATION":74.0223,"RA_OF_ASC_NODE":132.8018,"ARG_OF_PERICENTER":226.2094,"MEAN_ANOMALY":306.8905,"EPHEMERIS_TYPE":0,"CLASSIFICATION_TYPE":"U","NORAD_CAT_ID":33992,"ELEMENT_SET_NO":999,"REV_AT_EPOCH":90681,"BSTAR":0.00058676,"MEAN_MOTION_DOT":3.35e-5,"MEAN_MOTION_DDOT":0},{"OBJECT_NAME":"COSMOS 2251 DEB","OBJECT_ID":"1993-036GD","EPOCH":"2026-03-28T19:52:51.048768","MEAN_MOTION":14.41296383,"ECCENTRICITY":0.0022036,"INCLINATION":74.0458,"RA_OF_ASC_NODE":354.0752,"ARG_OF_PERICENTER":105.5906,"MEAN_ANOMALY":315.805,"EPHEMERIS_TYPE":0,"CLASSIFICATION_TYPE":"U","NORAD_CAT_ID":33994,"ELEMENT_SET_NO":999,"REV_AT_EPOCH":89948,"BSTAR":8.9046e-5,"MEAN_MOTION_DOT":2.62e-6,"MEAN_MOTION_DDOT":0},{"OBJECT_NAME":"COSMOS 2251 DEB","OBJECT_ID":"1993-036GE","EPOCH":"2026-03-28T13:29:08.287008","MEAN_MOTION":14.35351396,"ECCENTRICITY":0.0060022,"INCLINATION":74.0594,"RA_OF_ASC_NODE":285.6599,"ARG_OF_PERICENTER":273.1541,"MEAN_ANOMALY":86.2745,"EPHEMERIS_TYPE":0,"CLASSIFICATION_TYPE":"U","NORAD_CAT_ID":33995,"ELEMENT_SET_NO":999,"REV_AT_EPOCH":89037,"BSTAR":0.00064137,"MEAN_MOTION_DOT":1.851e-5,"MEAN_MOTION_DDOT":0},{"OBJECT_NAME":"COSMOS 2251 DEB","OBJECT_ID":"1993-036GJ","EPOCH":"2026-03-28T20:00:43.674912","MEAN_MOTION":14.86141245,"ECCENTRICITY":0.0045915,"INCLINATION":73.9194,"RA_OF_ASC_NODE":18.7087,"ARG_OF_PERICENTER":245.8865,"MEAN_ANOMALY":113.7508,"EPHEMERIS_TYPE":0,"CLASSIFICATION_TYPE":"U","NORAD_CAT_ID":33999,"ELEMENT_SET_NO":999,"REV_AT_EPOCH":90825,"BSTAR":0.0015284,"MEAN_MOTION_DOT":0.00013653,"MEAN_MOTION_DDOT":0},{"OBJECT_NAME":"COSMOS 2251 DEB","OBJECT_ID":"1993-036GL","EPOCH":"2026-03-28T18:16:10.488864","MEAN_MOTION":14.37227021,"ECCENTRICITY":0.0019489,"INCLINATION":74.036,"RA_OF_ASC_NODE":86.6172,"ARG_OF_PERICENTER":149.8251,"MEAN_ANOMALY":34.4739,"EPHEMERIS_TYPE":0,"CLASSIFICATION_TYPE":"U","NORAD_CAT_ID":34001,"ELEMENT_SET_NO":999,"REV_AT_EPOCH":89669,"BSTAR":0.00016038,"MEAN_MOTION_DOT":4.52e-6,"MEAN_MOTION_DDOT":0},{"OBJECT_NAME":"COSMOS 2251 DEB","OBJECT_ID":"1993-036GN","EPOCH":"2026-03-28T00:19:43.883040","MEAN_MOTION":13.84711269,"ECCENTRICITY":0.02782589,"INCLINATION":74.076,"RA_OF_ASC_NODE":107.8601,"ARG_OF_PERICENTER":196.5013,"MEAN_ANOMALY":162.6921,"EPHEMERIS_TYPE":0,"CLASSIFICATION_TYPE":"U","NORAD_CAT_ID":34003,"ELEMENT_SET_NO":999,"REV_AT_EPOCH":85882,"BSTAR":0.0011300988,"MEAN_MOTION_DOT":1.695e-5,"MEAN_MOTION_DDOT":0},{"OBJECT_NAME":"COSMOS 2251 DEB","OBJECT_ID":"1993-036GP","EPOCH":"2026-03-28T19:22:04.615104","MEAN_MOTION":14.50082176,"ECCENTRICITY":0.0027887,"INCLINATION":74.0331,"RA_OF_ASC_NODE":114.0511,"ARG_OF_PERICENTER":106.6117,"MEAN_ANOMALY":253.8108,"EPHEMERIS_TYPE":0,"CLASSIFICATION_TYPE":"U","NORAD_CAT_ID":34004,"ELEMENT_SET_NO":999,"REV_AT_EPOCH":89567,"BSTAR":0.00078414,"MEAN_MOTION_DOT":3.031e-5,"MEAN_MOTION_DDOT":0},{"OBJECT_NAME":"COSMOS 2251 DEB","OBJECT_ID":"1993-036GQ","EPOCH":"2026-03-28T19:42:11.889216","MEAN_MOTION":14.4039856,"ECCENTRICITY":0.0019389,"INCLINATION":74.0476,"RA_OF_ASC_NODE":17.6359,"ARG_OF_PERICENTER":114.4278,"MEAN_ANOMALY":314.0841,"EPHEMERIS_TYPE":0,"CLASSIFICATION_TYPE":"U","NORAD_CAT_ID":34005,"ELEMENT_SET_NO":999,"REV_AT_EPOCH":89906,"BSTAR":0.00011501,"MEAN_MOTION_DOT":3.4e-6,"MEAN_MOTION_DDOT":0},{"OBJECT_NAME":"COSMOS 2251 DEB","OBJECT_ID":"1993-036GR","EPOCH":"2026-03-28T15:06:44.180928","MEAN_MOTION":15.05125059,"ECCENTRICITY":0.0010347,"INCLINATION":74.0495,"RA_OF_ASC_NODE":288.3132,"ARG_OF_PERICENTER":184.2133,"MEAN_ANOMALY":238.8831,"EPHEMERIS_TYPE":0,"CLASSIFICATION_TYPE":"U","NORAD_CAT_ID":34006,"ELEMENT_SET_NO":999,"REV_AT_EPOCH":90256,"BSTAR":0.0036135,"MEAN_MOTION_DOT":0.00051862,"MEAN_MOTION_DDOT":0},{"OBJECT_NAME":"COSMOS 2251 DEB","OBJECT_ID":"1993-036GS","EPOCH":"2026-03-28T14:30:49.479840","MEAN_MOTION":14.65717285,"ECCENTRICITY":0.0048011,"INCLINATION":74.0179,"RA_OF_ASC_NODE":142.9555,"ARG_OF_PERICENTER":251.777,"MEAN_ANOMALY":107.8169,"EPHEMERIS_TYPE":0,"CLASSIFICATION_TYPE":"U","NORAD_CAT_ID":34007,"ELEMENT_SET_NO":999,"REV_AT_EPOCH":90630,"BSTAR":0.00055782,"MEAN_MOTION_DOT":3.058e-5,"MEAN_MOTION_DDOT":0},{"OBJECT_NAME":"COSMOS 2251 DEB","OBJECT_ID":"1993-036GT","EPOCH":"2026-03-28T14:52:44.193216","MEAN_MOTION":14.33225334,"ECCENTRICITY":0.0022205,"INCLINATION":74.033,"RA_OF_ASC_NODE":137.0129,"ARG_OF_PERICENTER":110.6135,"MEAN_ANOMALY":54.1271,"EPHEMERIS_TYPE":0,"CLASSIFICATION_TYPE":"U","NORAD_CAT_ID":34008,"ELEMENT_SET_NO":999,"REV_AT_EPOCH":89481,"BSTAR":9.15e-5,"MEAN_MOTION_DOT":2.26e-6,"MEAN_MOTION_DDOT":0}]
